BLUEBON                 
1 62688U 25009CH  26068.70316231  .00010452  00000+0  37313-3 0  9992
2 62688  97.4017 152.2033 0001193  43.3900 316.7434 15.29047253 63767
STARLINK-34269          
1 64386U 25127S   26068.31531919  .00036763  00000+0  13382-2 0  9991
2 64386  42.9955 181.5617 0000907 307.1563  52.9205 15.27595807 42416
